1 33591U 09005A   25105.83501241  .00000383  00000-0  22781-3 0  9999
2 33591  99.0013 170.2230 0014372 155.0273 205.1597 14.13340923834374